HAWK-11C                
1 62381U 24247E   26068.51221537  .00009223  00000+0  33290-3 0  9992
2 62381  45.0045 114.8762 0005900 329.7040  30.3502 15.28848020 67743
TRANSPORTER-12 OBJECT AZ
1 62656U 25009AZ  26068.71026235  .00016057  00000+0  54903-3 0  9991
2 62656  97.3981 151.9913 0000987  45.3581 314.7740 15.30349724 63792
